[{"OBJECT_NAME":"STARLINK-30198","OBJECT_ID":"2023-096A","EPOCH":"2026-03-09T22:00:01.999584","MEAN_MOTION":15.15672992,"ECCENTRICITY":0.00017382,"INCLINATION":42.9995,"RA_OF_ASC_NODE":221.4881,"ARG_OF_PERICENTER":295.0997,"MEAN_ANOMALY":179.6566,"EPHEMERIS_TYPE":0,"CLASSIFICATION_TYPE":"U","NORAD_CAT_ID":57290,"ELEMENT_SET_NO":999,"REV_AT_EPOCH":567,"BSTAR":0.0050728772,"MEAN_MOTION_DOT":0.00099438,"MEAN_MOTION_DDOT":0},{"OBJECT_NAME":"OBJECT B","OBJECT_ID":"2025-108B","EPOCH":"2026-03-09T22:57:20.569248","MEAN_MOTION":15.18732481,"ECCENTRICITY":0.00118477,"INCLINATION":97.4788,"RA_OF_ASC_NODE":145.8779,"ARG_OF_PERICENTER":0.6755,"MEAN_ANOMALY":359.4493,"EPHEMERIS_TYPE":0,"CLASSIFICATION_TYPE":"U","NORAD_CAT_ID":64088,"ELEMENT_SET_NO":999,"REV_AT_EPOCH":4430,"BSTAR":0.00058992219,"MEAN_MOTION_DOT":0.00012214,"MEAN_MOTION_DDOT":0}]
